{
  "type": "FeatureCollection",
  "features": [
    {
      "type": "Feature",
      "geometry": {
        "type": "Point",
        "coordinates": [
          88.3,
          26.99
        ]
      },
      "properties": {
        "event_id": "GLC_DARJEELING_01",
        "date": "2018-08-15",
        "location": "Darjeeling & Kalimpong, West Bengal, India Mountain Pass",
        "trigger": "Continuous Monsoon Rain",
        "landslide_category": "Debris flow",
        "landslide_size": "Large",
        "fatalities": 8,
        "confidence": "HIGH",
        "source": "NASA Global Landslide Catalog"
      }
    },
    {
      "type": "Feature",
      "geometry": {
        "type": "Point",
        "coordinates": [
          88.23,
          27.08
        ]
      },
      "properties": {
        "event_id": "GLC_DARJEELING_02",
        "date": "2020-08-07",
        "location": "Darjeeling & Kalimpong, West Bengal, India Valley Road",
        "trigger": "Torrential Downpour",
        "landslide_category": "Mudslide",
        "landslide_size": "Medium",
        "fatalities": 2,
        "confidence": "HIGH",
        "source": "NASA Global Landslide Catalog"
      }
    },
    {
      "type": "Feature",
      "geometry": {
        "type": "Point",
        "coordinates": [
          88.28,
          27.06
        ]
      },
      "properties": {
        "event_id": "GLC_DARJEELING_03",
        "date": "2024-07-29",
        "location": "Darjeeling & Kalimpong, West Bengal, India Upper Slope",
        "trigger": "Orographic Deluge",
        "landslide_category": "Catastrophic Debris Avalanche",
        "landslide_size": "Very Large",
        "fatalities": 45,
        "confidence": "VERY_HIGH",
        "source": "NASA Global Landslide Catalog / GSI"
      }
    }
  ]
}