{
  "type": "FeatureCollection",
  "features": [
    {
      "type": "Feature",
      "geometry": {
        "type": "Point",
        "coordinates": [
          76.74,
          11.36
        ]
      },
      "properties": {
        "event_id": "GLC_NILGIRIS_01",
        "date": "2018-08-15",
        "location": "Nilgiris (Ooty & Coonoor), Tamil Nadu, India Mountain Pass",
        "trigger": "Continuous Monsoon Rain",
        "landslide_category": "Debris flow",
        "landslide_size": "Large",
        "fatalities": 8,
        "confidence": "HIGH",
        "source": "NASA Global Landslide Catalog"
      }
    },
    {
      "type": "Feature",
      "geometry": {
        "type": "Point",
        "coordinates": [
          76.67,
          11.45
        ]
      },
      "properties": {
        "event_id": "GLC_NILGIRIS_02",
        "date": "2020-08-07",
        "location": "Nilgiris (Ooty & Coonoor), Tamil Nadu, India Valley Road",
        "trigger": "Torrential Downpour",
        "landslide_category": "Mudslide",
        "landslide_size": "Medium",
        "fatalities": 2,
        "confidence": "HIGH",
        "source": "NASA Global Landslide Catalog"
      }
    },
    {
      "type": "Feature",
      "geometry": {
        "type": "Point",
        "coordinates": [
          76.72,
          11.43
        ]
      },
      "properties": {
        "event_id": "GLC_NILGIRIS_03",
        "date": "2024-07-29",
        "location": "Nilgiris (Ooty & Coonoor), Tamil Nadu, India Upper Slope",
        "trigger": "Orographic Deluge",
        "landslide_category": "Catastrophic Debris Avalanche",
        "landslide_size": "Very Large",
        "fatalities": 45,
        "confidence": "VERY_HIGH",
        "source": "NASA Global Landslide Catalog / GSI"
      }
    }
  ]
}